[{"OBJECT_NAME":"STARLINK-31283","OBJECT_ID":"2024-044Y","EPOCH":"2026-03-09T22:00:01.999584","MEAN_MOTION":15.27567601,"ECCENTRICITY":0.00013626,"INCLINATION":43.0007,"RA_OF_ASC_NODE":58.8277,"ARG_OF_PERICENTER":256.0116,"MEAN_ANOMALY":70.9001,"EPHEMERIS_TYPE":0,"CLASSIFICATION_TYPE":"U","NORAD_CAT_ID":59174,"ELEMENT_SET_NO":999,"REV_AT_EPOCH":585,"BSTAR":0.002550605,"MEAN_MOTION_DOT":0.00070572,"MEAN_MOTION_DDOT":0},{"OBJECT_NAME":"OBJECT F","OBJECT_ID":"2021-022F","EPOCH":"2026-03-09T23:37:37.165152","MEAN_MOTION":15.31317672,"ECCENTRICITY":0.00120882,"INCLINATION":97.3982,"RA_OF_ASC_NODE":329.8375,"ARG_OF_PERICENTER":85.9268,"MEAN_ANOMALY":274.3355,"EPHEMERIS_TYPE":0,"CLASSIFICATION_TYPE":"U","NORAD_CAT_ID":47937,"ELEMENT_SET_NO":999,"REV_AT_EPOCH":27452,"BSTAR":0.00038690553,"MEAN_MOTION_DOT":0.00011656,"MEAN_MOTION_DDOT":0}]
